{
  "type": "FeatureCollection",
  "features": [
    {
      "type": "Feature",
      "properties": {
        "norad_id": 36198,
        "name": "FENGYUN 1C DEB",
        "group": "fengyun-1c-debris",
        "lat": 54.509029563743006,
        "lon": -148.63739567269823,
        "alt_km": 794.520855266378,
        "timestamp": "2025-12-15T20:48:54.171583+00:00",
        "meta_object_name": "FENGYUN 1C DEB",
        "meta_object_id": "1999-025DTX",
        "meta_epoch": "2025-12-11T20:43:05.397888",
        "meta_mean_motion": 14.07895366,
        "meta_eccentricity": 0.0096761,
        "meta_inclination": 98.6241,
        "meta_ra_of_asc_node": 15.2488,
        "meta_arg_of_pericenter": 117.8729,
        "meta_mean_anomaly": 243.2283,
        "meta_ephemeris_type": 0,
        "meta_classification_type": "U",
        "meta_norad_cat_id": 36198,
        "meta_element_set_no": 999,
        "meta_rev_at_epoch": 63575,
        "meta_bstar": 0.0023599,
        "meta_mean_motion_dot": 4.141e-05,
        "meta_mean_motion_ddot": 0,
        "tle_line1": "1 36198U 99025DTX 25345.86325692  .00004141  00000+0  23599-2 0  9991",
        "tle_line2": "2 36198  98.6241  15.2488 0096761 117.8729 243.2283 14.07895366635750"
      },
      "geometry": {
        "type": "Point",
        "coordinates": [
          -148.63739567269823,
          54.509029563743006
        ]
      }
    },
    {
      "type": "Feature",
      "properties": {
        "norad_id": 36199,
        "name": "FENGYUN 1C DEB",
        "group": "fengyun-1c-debris",
        "lat": -39.08878847667378,
        "lon": -175.94430171995398,
        "alt_km": 862.2942336123469,
        "timestamp": "2025-12-15T20:48:54.171594+00:00",
        "meta_object_name": "FENGYUN 1C DEB",
        "meta_object_id": "1999-025DTY",
        "meta_epoch": "2025-12-14T18:36:07.375104",
        "meta_mean_motion": 14.2965262,
        "meta_eccentricity": 0.0092845,
        "meta_inclination": 98.2897,
        "meta_ra_of_asc_node": 9.8178,
        "meta_arg_of_pericenter": 61.5398,
        "meta_mean_anomaly": 299.51,
        "meta_ephemeris_type": 0,
        "meta_classification_type": "U",
        "meta_norad_cat_id": 36199,
        "meta_element_set_no": 999,
        "meta_rev_at_epoch": 65009,
        "meta_bstar": 0.00030192646,
        "meta_mean_motion_dot": 7.7e-06,
        "meta_mean_motion_ddot": 0,
        "tle_line1": "1 36199U 99025DTY 25348.77508536  .00000770  00000+0  30193-3 0  9998",
        "tle_line2": "2 36199  98.2897   9.8178 0092845  61.5398 299.5100 14.29652620650099"
      },
      "geometry": {
        "type": "Point",
        "coordinates": [
          -175.94430171995398,
          -39.08878847667378
        ]
      }
    },
    {
      "type": "Feature",
      "properties": {
        "norad_id": 36200,
        "name": "FENGYUN 1C DEB",
        "group": "fengyun-1c-debris",
        "lat": -26.73391261063447,
        "lon": 69.00464066901056,
        "alt_km": 681.1302253019503,
        "timestamp": "2025-12-15T20:48:54.171604+00:00",
        "meta_object_name": "FENGYUN 1C DEB",
        "meta_object_id": "1999-025DTZ",
        "meta_epoch": "2025-12-14T03:47:05.989344",
        "meta_mean_motion": 14.58756817,
        "meta_eccentricity": 0.00334694,
        "meta_inclination": 99.3863,
        "meta_ra_of_asc_node": 62.296,
        "meta_arg_of_pericenter": 2.8388,
        "meta_mean_anomaly": 357.2991,
        "meta_ephemeris_type": 0,
        "meta_classification_type": "U",
        "meta_norad_cat_id": 36200,
        "meta_element_set_no": 999,
        "meta_rev_at_epoch": 73381,
        "meta_bstar": 0.0042903483,
        "meta_mean_motion_dot": 0.00020193,
        "meta_mean_motion_ddot": 0,
        "tle_line1": "1 36200U 99025DTZ 25348.15770821  .00020193  00000+0  42903-2 0  9993",
        "tle_line2": "2 36200  99.3863  62.2960 0033469   2.8388 357.2991 14.58756817733810"
      },
      "geometry": {
        "type": "Point",
        "coordinates": [
          69.00464066901056,
          -26.73391261063447
        ]
      }
    },
    {
      "type": "Feature",
      "properties": {
        "norad_id": 36203,
        "name": "FENGYUN 1C DEB",
        "group": "fengyun-1c-debris",
        "lat": 13.925557799360144,
        "lon": 116.32197951711466,
        "alt_km": 582.8506904921514,
        "timestamp": "2025-12-15T20:48:54.171614+00:00",
        "meta_object_name": "FENGYUN 1C DEB",
        "meta_object_id": "1999-025DUC",
        "meta_epoch": "2025-12-12T14:06:24.050304",
        "meta_mean_motion": 14.78408417,
        "meta_eccentricity": 0.00835001,
        "meta_inclination": 99.0957,
        "meta_ra_of_asc_node": 290.3437,
        "meta_arg_of_pericenter": 148.9986,
        "meta_mean_anomaly": 211.6188,
        "meta_ephemeris_type": 0,
        "meta_classification_type": "U",
        "meta_norad_cat_id": 36203,
        "meta_element_set_no": 999,
        "meta_rev_at_epoch": 63427,
        "meta_bstar": 0.0017430334,
        "meta_mean_motion_dot": 0.00013417,
        "meta_mean_motion_ddot": 0,
        "tle_line1": "1 36203U 99025DUC 25346.58777836  .00013417  00000+0  17430-2 0  9992",
        "tle_line2": "2 36203  99.0957 290.3437 0083500 148.9986 211.6188 14.78408417634277"
      },
      "geometry": {
        "type": "Point",
        "coordinates": [
          116.32197951711466,
          13.925557799360144
        ]
      }
    },
    {
      "type": "Feature",
      "properties": {
        "norad_id": 36204,
        "name": "FENGYUN 1C DEB",
        "group": "fengyun-1c-debris",
        "lat": 15.29384539050102,
        "lon": -90.25471379143379,
        "alt_km": 762.9710555220117,
        "timestamp": "2025-12-15T20:48:54.171624+00:00",
        "meta_object_name": "FENGYUN 1C DEB",
        "meta_object_id": "1999-025DUD",
        "meta_epoch": "2025-12-13T12:48:50.013216",
        "meta_mean_motion": 14.34589399,
        "meta_eccentricity": 0.00200312,
        "meta_inclination": 99.2908,
        "meta_ra_of_asc_node": 84.6725,
        "meta_arg_of_pericenter": 160.7561,
        "meta_mean_anomaly": 199.4382,
        "meta_ephemeris_type": 0,
        "meta_classification_type": "U",
        "meta_norad_cat_id": 36204,
        "meta_element_set_no": 999,
        "meta_rev_at_epoch": 94439,
        "meta_bstar": 0.0020446238,
        "meta_mean_motion_dot": 5.743e-05,
        "meta_mean_motion_ddot": 0,
        "tle_line1": "1 36204U 99025DUD 25347.53391219  .00005743  00000+0  20446-2 0  9990",
        "tle_line2": "2 36204  99.2908  84.6725 0020031 160.7561 199.4382 14.34589399944398"
      },
      "geometry": {
        "type": "Point",
        "coordinates": [
          -90.25471379143379,
          15.29384539050102
        ]
      }
    },
    {
      "type": "Feature",
      "properties": {
        "norad_id": 36206,
        "name": "FENGYUN 1C DEB",
        "group": "fengyun-1c-debris",
        "lat": 32.86755977511112,
        "lon": 7.36498126462591,
        "alt_km": 797.7640252493802,
        "timestamp": "2025-12-15T20:48:54.171635+00:00",
        "meta_object_name": "FENGYUN 1C DEB",
        "meta_object_id": "1999-025DUF",
        "meta_epoch": "2025-12-12T08:11:58.521984",
        "meta_mean_motion": 14.21580365,
        "meta_eccentricity": 0.00304293,
        "meta_inclination": 98.4792,
        "meta_ra_of_asc_node": 9.509,
        "meta_arg_of_pericenter": 20.5451,
        "meta_mean_anomaly": 339.6943,
        "meta_ephemeris_type": 0,
        "meta_classification_type": "U",
        "meta_norad_cat_id": 36206,
        "meta_element_set_no": 999,
        "meta_rev_at_epoch": 64415,
        "meta_bstar": 0.00096057028,
        "meta_mean_motion_dot": 2.074e-05,
        "meta_mean_motion_ddot": 0,
        "tle_line1": "1 36206U 99025DUF 25346.34164956  .00002074  00000+0  96057-3 0  9992",
        "tle_line2": "2 36206  98.4792   9.5090 0030429  20.5451 339.6943 14.21580365644158"
      },
      "geometry": {
        "type": "Point",
        "coordinates": [
          7.36498126462591,
          32.86755977511112
        ]
      }
    },
    {
      "type": "Feature",
      "properties": {
        "norad_id": 36211,
        "name": "FENGYUN 1C DEB",
        "group": "fengyun-1c-debris",
        "lat": -42.390949662748554,
        "lon": 155.093681127705,
        "alt_km": 620.4883467943573,
        "timestamp": "2025-12-15T20:48:54.171645+00:00",
        "meta_object_name": "FENGYUN 1C DEB",
        "meta_object_id": "1999-025DUL",
        "meta_epoch": "2025-12-12T05:52:45.045984",
        "meta_mean_motion": 14.2599064,
        "meta_eccentricity": 0.02665534,
        "meta_inclination": 98.5055,
        "meta_ra_of_asc_node": 339.424,
        "meta_arg_of_pericenter": 230.3031,
        "meta_mean_anomaly": 127.4375,
        "meta_ephemeris_type": 0,
        "meta_classification_type": "U",
        "meta_norad_cat_id": 36211,
        "meta_element_set_no": 999,
        "meta_rev_at_epoch": 94362,
        "meta_bstar": 0.00079042228,
        "meta_mean_motion_dot": 2.691e-05,
        "meta_mean_motion_ddot": 0,
        "tle_line1": "1 36211U 99025DUL 25346.24496581  .00002691  00000+0  79042-3 0  9999",
        "tle_line2": "2 36211  98.5055 339.4240 0266553 230.3031 127.4375 14.25990640943624"
      },
      "geometry": {
        "type": "Point",
        "coordinates": [
          155.093681127705,
          -42.390949662748554
        ]
      }
    }
  ]
}